organization_ein,nonprofit_name,irsclassification_nteecode,category,address,city,state,zipcode,website
463810427,Advocacy for Refugee and Immigrant Services for Empowerment,R11,Single Organization Support,10 GORDON RD,SHREWSBURY,MA,01545-3719,
943181517,Afgan Refugee Islamic Community of the Bay Area,,,29414 MISSION BLVD,UNION CITY,CA,94587-0000,https://masjid-abu-bakr.weebly.com/
834636487,Africa Refugees and Immigrants Community Center,Q71,"International Migration, Refugee Issues",5375 SALEM WOODS DRIVE,DAYTON,OH,45426-1676,
464754643,African Asian Refugee Services Agency Inc.,P84,"Ethnic, Immigrant Centers, Services",107 W OAKLAND AVE,AUSTIN,MN,55912-3121,https://www.facebook.com/multiculturalaustin/
823189422,African Immigrants and Refugees Transition Services,P20,Human Service Organizations - Multipurpose,7077 HICKORY LN,URBANDALE,IA,50322-1892,https://www.airts.org/
10873188,African Refuge Inc.,P20,Human Service Organizations - Multipurpose,185 PARKHILL AVE LOBBY B,STATEN ISLAND,NY,10304-4716,https://www.africanrefuge.org/
300310984,African Refugee Community Cooperation,P80,Services to Promote the Independence of Specific Populations,PO BOX 26063,INDIANAPOLIS,IN,46226-0063,
371594508,African Refugee Relief Agency A California Nonprofit Corporation,P84,"Ethnic, Immigrant Centers, Services",PO BOX 434,W SACRAMENTO,CA,95691-0434,
453648844,African Refugees and Victims Relief Fund,Q71,"International Migration, Refugee Issues",4028 ADAMS DR,SILVER SPRING,MD,20902-2310,
843210964,Alabama Interfaith Refugee Partnership Inc.,R20,"Civil Rights, Advocacy for Specific Groups",2641 PADEN PL,VESTAVIA,AL,35226-2839,http://www.alirp.org/
475353941,Alaska Refugee Relief,P80,Services to Promote the Independence of Specific Populations,745 W 4TH AVE STE 200B,ANCHORAGE,AK,99501-2158,https://nonprofitspotlight.org/2019/09/14/alaska-refugee-relief/
363241033,Alight (formerly American Refugee Committee),Q71,"International Migration, Refugee Issues",615 First Ave. NE.,Minneapolis,MN,55413,https://wearealight.org/
461802136,Alliance for Refugee Youth Support and Education,B01,Alliance/Advocacy Organizations,300 CHAMBER PLZ,CHARLEROI,PA,15022-1607,https://www.arysepgh.org/
263047598,Amaanah Refugee Services,Q71,"International Migration, Refugee Issues",7322 SOUTHWEST FWY,HOUSTON,TX,77074-2010,https://amaanahservices.org/
475162955,American Refugee Council Inc. - Arc,Q71,"International Migration, Refugee Issues",150 LYNNWAY,LYNN,MA,01902-3498,https://arcrescue.org/
202559140,Americans Aiding Refugees Inc.,P20,Human Service Organizations - Multipurpose,403 E COWAN DR,HOUSTON,TX,77007-5027,
475577637,Americans for Refugees in Crisis,T12,Fund Raising and/or Fund Distribution,273 UPLAND RD,CAMBRIDGE,MA,02140-3625,https://americansforrefugees.org/
520882226,Anera,Q30,"International Development, Relief Services",1111 14th Street NW,Washington,DC,20005,https://www.anera.org/
113534833,Ansob Center for Refugees Inc.,P80,Services to Promote the Independence of Specific Populations,2819 STEINWAY ST,ASTORIA,NY,11103-3331,https://www.ansob.org/
272650346,Arab Refugees Christians in USA,P60,"Emergency Assistance (Food, Clothing, Cash)",11235 WESTPOINT DRIVE,KNOXVILLE,TN,37934-2827,
273144463,Arizona Allnation Refugee Resource Center,A23,"Cultural, Ethnic Awareness",3581 WEST NORTHERN AVENUE,PHOENIX,AZ,85051-9404,https://aarrc.org/
371525253,Arizona Immigrant and Refugee Services Inc.,Q71,"International Migration, Refugee Issues",10240 N 31ST AVE STE 112,PHOENIX,AZ,85051-9564,https://www.immigrationadvocates.org/nonprofit/legaldirectory/organization.392559-Arizona_Immigrant_and_Refugee_Services
383056319,Armenian Resettlement and Refugee Assistance Tr Fund,T30,Public Foundations,2323 SAPPHIRE LN,EAST LANSING,MI,48823-7263,
200052487,Art for Refugees in Transition Inc.,A25,Arts Education,C/O GREEN 90 RIVERSIDE DR,NEW YORK,NY,10024-0000,http://www.artforrefugees.org/
452620705,Ashas Refuge,P20,Human Service Organizations - Multipurpose,1035 WINCHESTER RD SUITE A216,COLLIERVILLE,TN,38017-3670,http://www.ashasrefuge.org/
133103029,Association Ark of Refugees Inc. C/O Maria Cintron,,,661 MORRIS PARK AVE,BRONX,NY,10462-3502,
770666687,ASSOCIATION FOR REFUGEE SERVICES PROFESSIONALS,S41,Promotion of Business,PO BOX 80692,AUSTIN,TX,78708-0692,"http://www.refugeeprofessionals.org/#:~:text=Refugee%20Service%20Professionals%20is%20an,and%20uprooted%20and%20displaced%20people."
462139994,Asylee Refugee Migrant Assistance Network,P20,Human Service Organizations - Multipurpose,PO BOX 1640,LAS VEGAS,NV,89125-1640,https://www.facebook.com/ARMANHEALING/
453769025,Asylee Women Enterprise,Q71,"International Migration, Refugee Issues",4500 FRANKFORD AVE,BALTIMORE,MD,21206-5106,https://www.asyleewomen.org/
203642040,Asylum Access,Q71,"International Migration, Refugee Issues",555 12th Street,Oakland,CA,94607,https://asylumaccess.org/
832184686,Asylum and Refugee Services Inc.,P20,Human Service Organizations - Multipurpose,5326 E 5TH ST,TUCSON,AZ,85711-2332,
833011862,Asylum Seeker Advocacy Project Inc.,P84,"Ethnic, Immigrant Centers, Services",40 RECTOR STREET 9TH FLOOR,NEW YORK,NY,10006-1732,https://asylumadvocacy.org/
813205931,Asylum Seeker Assistance Project,Q71,"International Migration, Refugee Issues",2121 DECATUR PL NW STE 4,WASHINGTON,DC,20008-1939,https://www.asylumprojectdc.org/
843443808,Asylum Support Fund Inc.,P01,Alliance/Advocacy Organizations,2 HIGH CLIFF AVE,PLYMOUTH,MA,02360-4315,https://asylumsupportfund.org/
831039125,Benson Area Refugee Taskforce,P84,"Ethnic, Immigrant Centers, Services",PO BOX 4362,OMAHA,NE,68104-0362,http://www.bensonrefugeetf.com/
611762017,Bibles for Refugees,X20,Christian,PO BOX 30000,PHILADELPHIA,PA,19103-8000,https://www.facebook.com/biblesforrefugees
813692372,Blacksburg Refugee Partnership Inc.,P99,Human Services - Multipurpose and Other N.E.C.,PO BOX 116,BLACKSBURG,VA,24063-0116,https://blacksburgrefugeepartnership.org/
823180823,Bloomington Refugee Support Network Inc.,P50,Personal Social Services,3101 E SAINT JAMES CT,BLOOMINGTON,IN,47401-7105,https://www.bloomingtonrefugees.org/
814706837,Buduburam Refugees Association Inc.,W99,"Public, Society Benefit - Multipurpose and Other N.E.C.",1200 DEL MAR CLUB DR,DACULA,GA,30019-7599,https://m.facebook.com/groups/1044756248967502/?ref=pages_profile_groups_tab&source_id=1297664350284952
820878797,Buffalo Immigrant and Refugee Leadership Team Inc.,P20,Human Service Organizations - Multipurpose,2495 MAIN ST STE 547,BUFFALO,NY,14214-2154,https://voicebuffalo.org/bilt/
272836526,Burma Family Refugee Network,P80,Services to Promote the Independence of Specific Populations,1811 11TH AVE,OAKLAND,CA,94606-3103,https://www.brfn.org/
260480062,Burmese Refugee Project Inc.,Q33,International Relief,722 WEST 168TH ST,NEW YORK,NY,10032-3727,https://www.facebook.com/BurmeseRefugeeProject/
471525678,Cache Refugee and Immigrant Connection,P84,"Ethnic, Immigrant Centers, Services",429 S MAIN SUITE 1,LOGAN,UT,84321-5207,https://www.cacherefugees.org/
300577219,Carolina Refugee Resettlement Agency Inc.,P84,"Ethnic, Immigrant Centers, Services",5009 MONROE ROAD STE 100,CHARLOTTE,NC,28205-7847,https://carolinarefugee.org/
941498472,"Catholic Charities CYO, Archdiocese of San Francisco",P20,Human Service Organizations - Multipurpose,990 Eddy Street,San Francisco,CA,94109,https://www.catholiccharitiessf.org/
750808769,Catholic Charities Fort Worth,P20,Human Service Organizations - Multipurpose,249 West Thornhill Drive,Fort Worth,TX,76115,https://www.catholiccharitiesfortworth.org/
951690973,Catholic Charities of Los Angeles,P20,Human Service Organizations - Multipurpose,1531 James M. Wood Boulevard,Los Angeles,CA,90015,https://catholiccharitiesla.org/
942762269,Catholic Charities of Santa Clara County,P20,Human Service Organizations - Multipurpose,2625 Zanker Road,San Jose,CA,95134,https://www.catholiccharitiesscc.org/
741109733,Catholic Charities of the Archdiocese of Galveston-Houston,P20,Human Service Organizations - Multipurpose,2900 Louisiana Street,Houston,TX,77006,https://catholiccharities.org/
390806321,Catholic Charities of the Archdiocese of Milwaukee,P20,Human Service Organizations - Multipurpose,3501 South Lake Drive,Saint Francis,WI,53235,https://www.ccmke.org/Catholic-Charities.htm
730636561,Catholic Charities of the Archdiocese of Oklahoma City,,,1232 N Classen Blvd,Oklahoma City,OK,73106,https://catholiccharitiesok.org/
592473176,"Catholic Charities, Diocese of Venice, Inc.",P20,Human Service Organizations - Multipurpose,P.O. Box 2116,Venice,FL,34285,https://catholiccharitiesdov.org/
811843680,Center for African Immigrants and Refugees Organization,P20,Human Service Organizations - Multipurpose,13909 SE STARK ST,PORTLAND,OR,97233-2143,https://cairopdx.org/
760822958,Center for Empowering Refugees Inc.,P42,"Single Parent Agencies, Services",544 INTERNATIONAL BLVD APT 9,OAKLAND,CA,94606-2973,https://www.facebook.com/cerieastbay/
272787747,Center for Refugee Services,P84,"Ethnic, Immigrant Centers, Services",8703 WURZBACH RD STE A-1,SAN ANTONIO,TX,78240-1160,https://sarefugees.org/
112705005,Central American Refugee Center Carecen Ny,P84,"Ethnic, Immigrant Centers, Services",91 N FRANKLIN ST STE 208,HEMPSTEAD,NY,11550-3003,https://www.carecenny.org/
814413468,Central Vermont Refugee Action Network Inc.,P84,"Ethnic, Immigrant Centers, Services",PO BOX 910,MONTPELIER,VT,05601-0910,https://cvran.org/
942943618,Cham Refugee League of the US A Inc.,,,1099 S VAN NESS AVE,SAN FRANCISCO,CA,94110-2615,
911214867,Cham Refugees Community,,,5945 39TH AVE S,SEATTLE,WA,98118-2616,https://www.chamrefugeescommunity.org/
821987978,Champaign-Urbana Friends and Allies of Immigrants and Refugees,W01,Alliance/Advocacy Organizations,201 W KENYON ROAD,CHAMPAIGN,IL,61820-7892,https://www.cu-fair.org/
830977387,Chicago Refugee Coalition,P01,Alliance/Advocacy Organizations,1333 SOUTH WABASH AVENUE,CHICAGO,IL,60605-2549,http://www.chicagorefugee.org/
812702093,Child Refugee Initiative Inc.,O30,"Adult, Child Matching Programs",1441 BROADWAY STE 5037,NEW YORK,NY,10018-1905,http://www.childrefugeeinitiative.org/
833057494,Children of Haiti and Refugee Projects Inc.,P20,Human Service Organizations - Multipurpose,501 SW 2ND AVE,FT LAUDERDALE,FL,33301-2808,"https://www.childrenofhaitiproject.org/#:~:text=The%20Children%20of%20Haiti%20and,in%20Africa%2C%20Jordan%20and%20Israel."
911937903,Christian Relief Services Charities,L21,Public Housing Facilities,8301 Richmond Highway,Alexandria,VA,22309,https://www.christianrelief.org/
134080201,Church World Service,Q33,International Relief,28606 Phillips Street,Elkhart,IN,46515,https://cwsglobal.org/
821716159,Citizens Immigration and Refugee Action Committee,B01,Alliance/Advocacy Organizations,1024 SIGNAL HILL LN,LANCASTER,PA,17601-1535,https://www.facebook.com/CIRACLancaster/
820976101,Claras Closet Refugee Services Inc.,P84,"Ethnic, Immigrant Centers, Services",216 BEARD AVE,BUFFALO,NY,14214-1742,https://www.centralparkcomplex.com/claras-closet.html
271458930,Coalition for Refugees From Burma,B90,Educational Services and Schools - Other,1265 S MAIN ST STE 309,SEATTLE,WA,98144-2010,https://www.crbkc.org/
824477584,Coalition of Refugee Youth,P30,"Children's, Youth Services",15734 ROAN RD,CHINO HILLS,CA,91709-8726,
841788565,Colorado Asylum Center,R20,"Civil Rights, Advocacy for Specific Groups",1888 N SHERMAN ST STE 200,DENVER,CO,80203-1158,https://www.coasylum.org/
842729418,Colorado Refugees Venture,J01,Alliance/Advocacy Organizations,9031 E AMHERST DR APT E,DENVER,CO,80231-4043,
815449870,Comics for Youth Refugees Incorporated Collective,F99,"Mental Health, Crisis Intervention N.E.C.",5 PARK TERRACE UNIT A,ARLINGTON,MA,02474-1227,https://www.facebook.com/refugeecomics/
320153040,Community Access for New Immigrants and African Refugees,Q70,International Human Rights,3300 COUNTY ROAD 10 STE 518D,BROOKLYN CTR,MN,55429-3068,http://www.caniarusa.org/
813418323,Community Asylum Seekers Project Inc.,Q71,"International Migration, Refugee Issues",44 SCHOOL STREET EXT,BELLOWS FALLS,VT,05101-1478,https://caspvt.org/
832266657,Community Health Worker Coalition for Migrants and Refugees,E21,Community Health Systems,24315 89TH PL W,EDMONDS,WA,98026-9011,https://www.chwcoalition.org/
311674893,Community Refugee and Immigration Services Inc.,P84,"Ethnic, Immigrant Centers, Services",1925 E DUBLIN GRANVILLE,COLUMBUS,OH,43229-3517,https://www.crisohio.org/
841853479,Community Refugee Relief Initiative Inc.,A23,"Cultural, Ethnic Awareness",700 W LEA BLVD STE 209,WILMINGTON,DE,19802-2545,https://crrimissions.org/
112457451,Congregation Friends of Refugees of Eastern Europe C O Benjamin Isaacs,,,1383 PRESIDENT ST,BROOKLYN,NY,11213-4334,
61623555,Connecticut Immigrant and Refugee Coalition Inc.,P84,"Ethnic, Immigrant Centers, Services",40 WOODLAND ST STE 2,HARTFORD,CT,06105-2334,https://www.coalitionct.org/
60669118,Connecticut Institute for Refugees and Immigrants Inc.,,,670 CLINTON AVE,BRIDGEPORT,CT,06605-1704,https://cirict.org/
811902386,Danbury Area Refugee Assistance Inc.,P84,"Ethnic, Immigrant Centers, Services",PO BOX 1090,REDDING CTR,CT,06875-1090,https://www.daract.org/
464096561,Darfur Education & Refugee Help Center,P84,"Ethnic, Immigrant Centers, Services",9138 W 102 AVE,WESTMINISTER,CO,80021-0000,
842602323,Detained Refugee Solidarity Fund,P84,"Ethnic, Immigrant Centers, Services",1009 GLADE ST,COLLEGE STA,TX,77840-3031,https://www.facebook.com/pages/category/Nonprofit-Organization/Detained-Refugee-Solidarity-Fund-115963043172682/
814685664,Dfw Asylum Seeker Housing Network,Q71,"International Migration, Refugee Issues",PO BOX 470783,FORT WORTH,TX,76147-0783,https://dashnetwork.net/
820807480,Dfw Refugee Outreach Services,P84,"Ethnic, Immigrant Centers, Services",7923 BANYAN WAY,IRVING,TX,75063-1801,https://www.refugeeoutreachdfw.org/
472211876,Dignity in Asylum Inc.,L41,"Homeless, Temporary Shelter For",PO BOX 1244,CONCORD,MA,01742-1244,"https://www.dignityinasylum.org/#:~:text=Dignity%20in%20Asylum,minors%20at%20risk%20of%20homelessness."
742723627,DIOCESAN MIGRANT & REFUGEE SERVICES INC,,,499 SAINT MATTHEWS ST,EL PASO,TX,79907-4214,http://www.dmrs-ep.org/
951831116,Direct Relief,Q33,International Relief,6100 wallace becknell,Santa Barbara,CA,93117,https://www.directrelief.org/
815075816,Dream Refugee,S01,Alliance/Advocacy Organizations,65 LOWRY AVE NE,MINNEAPOLIS,MN,55418-3342,https://www.dreamrefugee.org/
473092234,Dubuque for Refugee Children,Q71,"International Migration, Refugee Issues",PO BOX 1741,DUBUQUE,IA,52004-1741,https://www.facebook.com/DforRC/
840827571,Ecumenical Refugee and Immigration Services,,,1600 Downing Street,Denver,CO,80218,https://www.facebook.com/maidp.du.gspp/posts/ecumenical-refugee-and-immigration-services-eris1600-downing-st-400-denver-co-80/431711083652029/
812773420,Educated Refugee Foundation Corporation,P12,Fund Raising and/or Fund Distribution,5215 RUBY AVE,FIRESTONE,CO,80504-5913,https://educatedrefugee.org/
821244469,Education Refuge,Q71,"International Migration, Refugee Issues",PO BOX 22187,LINCOLN,NE,68542-2187,https://www.educationrefuge.org/our-mission
842077603,Ethnic Community-Based Organization for Refugees and Immigrants,P84,"Ethnic, Immigrant Centers, Services",1331 S STATE ST STE 100,SALT LAKE CTY,UT,84115-5541,
591010116,Evangelical Pentecostal Church and Refugee Center Inc.,,,90 NW 27TH AVE,MIAMI,FL,33125-5112,
351900090,Exodus Refugee Immigration Inc.,P84,"Ethnic, Immigrant Centers, Services",2457 E WASHINGTON ST STE A,INDIANAPOLIS,IN,46201-4182,https://www.exodusrefugee.org/
812120011,Eyes on Refugees,Q71,"International Migration, Refugee Issues",PO BOX 378,CARLISLE,MA,01741-0378,https://twitter.com/eyesonrefugees1?lang=en
841878090,Floyd Friends of Asylum Seekers,P61,Travelers' Aid,485 OLD RIFTON SCHOOL RD NE,PILOT,VA,24138-1590,https://floydfriendsofasylumseekers.org/
452256540,For the Nations Refugee Outreach,Q33,International Relief,414 S PURDUE DR,GARLAND,TX,75042-6800,https://ftnro.org/
832337377,Forging Opportunities for Refugees in America Inc. Nfp,B90,Educational Services and Schools - Other,5822 S BLACKSTONE AVE APT 2,CHICAGO,IL,60637-5202,https://www.refugeefora.org/
820847814,Fort Wayne for Refugees Inc.,P84,"Ethnic, Immigrant Centers, Services",622 S CALHOUN ST,FORT WAYNE,IN,46802-1708,https://www.facebook.com/FWforRefugees/
770357297,Fresno Interdenominational Refugee Ministries,X20,Christian,1940 N FRESNO ST,FRESNO,CA,93703-2231,https://www.firminc.org/
204777590,Friends of Immigrants and Refugees of St. Louis,P80,Services to Promote the Independence of Specific Populations,120 S CENTRAL AVE STE 500,SAINT LOUIS,MO,63105-1733,http://firststl.org/about.cfm
271995329,Friends of Refugees,P84,"Ethnic, Immigrant Centers, Services",PO BOX 1512,BEAVERTON,OR,97075-1512,https://friendsofrefugees.com/
201989492,Friends of Refugees Inc.,K31,"Food Banks, Food Pantries",PO BOX 548,CLARKSTON,GA,30021-0548,https://friendsofrefugees.com/
362822431,Friends of Refugees of Eastern Europe,P84,"Ethnic, Immigrant Centers, Services",2935 W. Devon Avenue,Chicago,IL,60659,https://www.russianjewry.org/
383105588,Friends of Refugees of Eastern Europe Inc.,,,14141 LUDLOW PL,OAK PARK,MI,48237-1354,
471667780,Friends of Refugees Providing Education and Empowerment Inc.,P84,"Ethnic, Immigrant Centers, Services",2100 RIVERSIDE PARKWAY,LAWRENCEVILLE,GA,30043-5927,https://freerefugees.org/about
650202055,Genezaret Pentecostal Church and Refugee Center Inc.,X21,Protestant,3050 S DIXIE HWY APT 404,MIAMI,FL,33133-3544,
261733523,Georgia Asylum & Immigration Network Inc.,I83,"Public Interest Law, Litigation",PO BOX 78425,ATLANTA,GA,30357-2425,https://georgiaasylum.org/
841952931,Give Refugees A Chance,Q71,"International Migration, Refugee Issues",9846 N CENTRAL ST,PORTLAND,OR,97203-1504,https://giverefugeesachance.org/about/
271661997,GiveDirectly Inc.,P60,"Emergency Assistance (Food, Clothing, Cash)",P.O. Box 3221,New York,NY,10008,https://www.givedirectly.org/
813684730,Global Center for Refugee Education and Science,M20,Disaster Preparedness and Relief Services,47396 VICTORIA FALLS SQ,STERLING,VA,20165-2498,https://gcres.org/
463258261,Global Garden Refugee Training Farm,K11,Single Organization Support,103 CIRCLE DR W,MONTGOMERY,IL,60538-2706,https://www.globalgardenfarm.org/
821346310,Global Lawyers for Refugees,R20,"Civil Rights, Advocacy for Specific Groups",6257 RATHLIN DR,SPRINGFIELD,VA,22152-2169,https://www.glrworldwide.org/
833683991,Global Refugee Relief Fund,P20,Human Service Organizations - Multipurpose,321 SPINNAKER ST,FOSTER CITY,CA,94404-3411,https://sites.google.com/view/globalrefugeerelieffund
822215583,Global Refugee Services of Greater Houston,P20,Human Service Organizations - Multipurpose,6559 W BELLFORT ST,HOUSTON,TX,77035-2060,
832490783,Gospel for Refugees,X20,Christian,PO BOX 10775,OAKLAND,CA,94610-0775,
202559651,Grantmakers Concerned With Immigrants and Refugees,T02,Management & Technical Assistance,PO BOX 1100,SEBASTOPOL,CA,95473-1100,https://www.gcir.org/
352217554,Greater Refugee Ministries Incorporated Church of God in Chri,X21,Protestant,PO BOX 1755,CLINTON,MD,20735-5755,
822062611,Hampton Roads Refugee Relief Inc.,P84,"Ethnic, Immigrant Centers, Services",763 J CLYDE MORRIS BLVD STE 1-A,NEWPORT NEWS,VA,23601-1533,https://hr3va.org/
821762609,Hanan Refugees Relief Group,Q71,"International Migration, Refugee Issues",2202 TROTTERS RIDGE CT,GREENVILLE,NC,27858-9403,https://hananrrg.org/
813361872,Hearts and Homes for Refugees,P84,"Ethnic, Immigrant Centers, Services",PO BOX 8558,PELHAM,NY,10803-8558,https://www.heartsandhomesforrefugees.org/
953064521,Help for Refugees,,,PO BOX 5161,TORRANCE,CA,90510-5161,https://www.helpforrefugees.com/
274238126,HELPING REFUGEES OF THE WORLD INC,A23,"Cultural, Ethnic Awareness",1505 GOLDEN MEADOW ST,WAUSAU,WI,54401-3415,
135633307,HIAS,Q71,"International Migration, Refugee Issues","1300 Spring Street, Suite 500",Silver Spring,MD,20910,https://www.hias.org/
821274285,Home for Refugees USA,P84,"Ethnic, Immigrant Centers, Services",26682 AVENIDA ARIVACA,MISSION VIEJO,CA,92691-2606,http://www.homeforrefugeesusa.org/
263173703,Hope 4 Refugees,P84,"Ethnic, Immigrant Centers, Services",1515 N TOWN EAST BLVD 138 209,MESQUITE,TX,75150-4157,
825089830,Hope for Refugees Inc.,Q71,"International Migration, Refugee Issues",11 ROANOKE RD,WELLESLEY,MA,02482-6929,
275372331,Hope for the Refugee and Immigrant Inc.,P20,Human Service Organizations - Multipurpose,13819 CASTLE BLVD APT 34,SILVER SPRING,MD,20904-7344,
721487615,House of Refugee Ministries of the Apostolic Faith International Inc.,X21,Protestant,56 YELLOWSTONE DR,NEW ORLEANS,LA,70131-8618,
811896789,Houston Welcomes Refugees,P20,Human Service Organizations - Multipurpose,946 W 17TH ST,HOUSTON,TX,77008-3434,https://www.houstonwelcomesrefugees.com/
133116646,Human Rights First,Q70,International Human Rights,75 Broad Street,New York,NY,10004,https://www.humanrightsfirst.org/
752842602,Human Rights Initiative,P84,"Ethnic, Immigrant Centers, Services",2801 Swiss Avenue,Dallas,TX,75204,https://hrionline.org/
363783551,Illinois Coalition for Immigrant and Refugee Rights,R21,,"228 S. Wabash Ave, Suite 800",Chicago,IL,60604,https://www.icirr.org/
474426747,Immanuel House Refugee Project Inc.,L40,Low-Cost Temporary Housing,225 MOUNT HERMON RD SPC 184,SCOTTS VALLEY,CA,95066-4041,https://www.facebook.com/pages/category/Nonprofit-Organization/Immanuel-House-Refugee-Project-1741437739446237/
421696954,Immigrant & Refugee Womens Program,P80,Services to Promote the Independence of Specific Populations,5021 ADKINS AVE,SAINT LOUIS,MO,63116-2356,https://irwpstl.org/
840857486,Immigrant and Refugee Center of Northern Colorado,B61,,3001 8TH AVE STE 170,EVANS,CO,80620-1204,https://www.ircnoco.org/
822744813,Immigrant and Refugee Law Center,I80,Legal Services,1702 GRAND AVE,CINCINNATI,OH,45214-1502,https://irlawcenter.org/
842802566,Immigrant and Refugee Outreach Center,Q71,"International Migration, Refugee Issues",951 BELLVIEW RD,MCLEAN,VA,22102-1213,
275024085,Immigrant and Refugee Resource Village of Albuquerque Inc.,P80,Services to Promote the Independence of Specific Populations,PO BOX 8865,ALBUQUERQUE,NM,87198-8865,https://www.irrva.com/
223260883,Immigrant Legal Advocacy Project,I80,Legal Services,489 Congress Street,Portland,ME,4112,https://ilapmaine.org/
811596453,Indiana Refugee Network Inc.,P84,"Ethnic, Immigrant Centers, Services",3306 VAN TASSEL DR,INDIANAPOLIS,IN,46240-3555,https://indianarefugeenetwork.org/
911094800,Indochina Chinese Refugee Association,A23,"Cultural, Ethnic Awareness",200 21ST AVE,SEATTLE,WA,98122-5914,
953741966,Indochinese Muslim Refugee Association of the United States,X40,Islamic,1610 E 1ST ST,SANTA ANA,CA,92701-7315,
60653044,Integrated Refugee & Immigrant Services Inc.,,,235 NICOLL STREET FLOOR 2,NEW HAVEN,CT,06511-2670,https://www.irisct.org/
741488102,Interfaith Ministries for Greater Houston,,,3303 Main Street,Houston,TX,77002,https://www.imgh.org/
274394349,INTERFAITH REFUGEE MINISTRY INC,,,1913 TRENT BLVD,NEW BERN,NC,28560-4537,http://www.helpingrefugees.org/
270669322,International Association for Refugees,Q33,International Relief,1515 E 66TH ST,MINNEAPOLIS,MN,55423-2648,https://www.iafr.org/
271544492,International Council for Refugees and Immigrants Inc.,P20,Human Service Organizations - Multipurpose,PO BOX 8302,DES MOINES,IA,50301-8302,https://icrius.org/about-us/
900959435,International Refugee and Immigrants Community Services Nfp,S20,"Community, Neighborhood Development, Improvement (General)",8800 BRONX AVE STE 101,SKOKIE,IL,60077-1804,
474801588,International Refugee Assistance Association Inc.,P20,Human Service Organizations - Multipurpose,502 GAGE PL,COLUMBIA,MO,65203-0000,https://refugeerights.org/
822167556,International Refugee Assistance Project Inc.,P20,Human Service Organizations - Multipurpose,1 BATTERY PARK PLZ 4TH FL,NEW YORK,NY,10004-1586,https://refugeerights.org/
956133816,International Refugee Mission Inc.,,,1116 ELDEN AVE,LOS ANGELES,CA,90006-2929,
201408831,International Refugee Rights Initiative,R20,"Civil Rights, Advocacy for Specific Groups",1483 YORK AVE UNIT 20463,NEW YORK,NY,10021-8824,http://refugee-rights.org/
743233138,International Sudanese Refugee Care,Q33,International Relief,3838 SCOTWOOD DR,NASHVILLE,TN,37211-3527,
821543114,Ipswich Refugee Program Incorporated,P20,Human Service Organizations - Multipurpose,PO BOX 285,IPSWICH,MA,01938-0285,https://www.ipswichrefugeeprogram.org/
133808003,Iranian Refugees Alliance Inc.,Q71,"International Migration, Refugee Issues",PO BOX 316,NEW YORK,NY,10276-0316,http://www.irainc.org/
813853065,Islamic Center of the Triad Refugee & Immigration Community Service C,P40,Family Services,4930 MARY ST,GREENSBORO,NC,27409-2810,http://www.islamiccenterofthetriad.com/
832625221,Israeli Darandoka Organization for Refugees,S80,Community Service Clubs,957 E 3745 S APT 1,SALT LAKE CTY,UT,84106-1945,https://www.facebook.com/israelidarandokaforrefugees/?pageid=180389679279395&ftentidentifier=535424137109279&padding=0
821987282,Ithaca Welcomes Refugees Inc.,P84,"Ethnic, Immigrant Centers, Services",315 N CAYUGA ST,ITHACA,NY,14850-4208,http://ithacawelcomesrefugees.org/
521917902,James J Norris Foundation for Migrants and Refugees,T12,Fund Raising and/or Fund Distribution,1629 K ST NW STE 300,WASHINGTON,DC,20006-1631,
462061064,Japan-America Refugee Network Inc.,P20,Human Service Organizations - Multipurpose,78 MARLBORO RD,DELMAR,NY,12054-2921,
521355257,JESUIT REFUGEE SERVICE USA,,,"1016 16th St, Ste 500",Washington,DC,20036,https://www.jrsusa.org/
161242203,Journeys End Refugee Services,,,2495 MAIN ST STE 530,BUFFALO,NY,14214-2135,https://www.jersbuffalo.org/
821295491,Kalamazoo Refugee Resource Collaborative Inc.,P84,"Ethnic, Immigrant Centers, Services",6346 BROGAN HL,KALAMAZOO,MI,49009-8077,https://www.kalamazoorefugee.org/
821240928,KC Asylum Clinic,I80,Legal Services,2005 SWIFT AVE,N KANSAS CITY,MO,64116-3423,https://www.asylumclinickc.org/
821576842,KC for Refugees,R01,Alliance/Advocacy Organizations,824 W 53RD ST,KANSAS CITY,MO,64112-2324,https://www.kcforrefugees.org/
611229842,Kentucky Refugee Ministries Inc.,X99,"Religion Related, Spiritual Development N.E.C.",969B CHEROKEE RD,LOUISVILLE,KY,40204-2390,https://kyrm.org/
752999028,KinderUSA,Q33,International Relief,P.O. Box 224846,Dallas,TX,75222,https://www.kinderusa.org/
320355597,Korean-American North Korean Refugees Association of Phildelphi,B90,Educational Services and Schools - Other,1330 WILLOW AVE 1ST FL,ELKINS PARK,PA,19027-3138,
300986239,Lee County Refugee Center Inc.,P84,"Ethnic, Immigrant Centers, Services",125 GILBERT AVE S,LEHIGH ACRES,FL,33973-7001,https://www.facebook.com/pages/Lee-County-Refugee-Inc/1649985055118331
232864950,Liberian Refugee Relief Organization,P20,Human Service Organizations - Multipurpose,6747 GROVERS AVE,PHILADELPHIA,PA,19142-2608,
731710135,Liberty in North Korea,Q70,International Human Rights,236 East Third Street,Long Beach,CA,90802,
954402149,Life for Relief and Development,Q33,International Relief,17300 West Ten Mile Road,Southfield,MI,48075,https://www.lifeusa.org/
823005401,Louisiana Organization for Refugees and Immigrants,Q71,"International Migration, Refugee Issues",1183 S TINLEY DR,BATON ROUGE,LA,70815-5359,https://www.mylori.org/
831242316,Love Elevates Refugee Relief Network Inc.,S12,Fund Raising and/or Fund Distribution,434 RAMONA AVE APT 10,MONTEREY,CA,93940-3844,https://loveelevatesnetwork.com/
815412960,Love Without Borders - for Refugees in Need,P20,Human Service Organizations - Multipurpose,14042 BALLANTRAE DR,GRANDVIEW,MO,64030-0000,https://lovewithoutborders4refugees.com/
132574854,Lutheran Immigration and Refugee Service,,,700 LIGHT ST,BALTIMORE,MD,21230-3850,https://www.google.com/aclk?sa=l&ai=DChcSEwjO-7X_4IvqAhWJjcgKHX4RCkIYABAAGgJxdQ&sig=AOD64_1HuLoTq1M0z947y3KeAWfX_twEiw&q=&ved=2ahUKEwiq-av_4IvqAhWqgnIEHRieBZUQ0Qx6BAgOEAE&adurl=
831172111,Lynchburg Refugee Partnership,P99,Human Services - Multipurpose and Other N.E.C.,3109 RIVERMONT AVE,LYNCHBURG,VA,24503-1357,https://www.lynchburgrefugeepartnership.com/
832134635,Magdalena Orejel Scholarship Fund for Immigrant and Refugee Women,B82,"Scholarships, Student Financial Aid Services, Awards",PO BOX 791,LONG BEACH,CA,90801-0791,https://www.magdalenaorejelscholarshipfund.org/
263099485,Maine Immigrant & Refugee Services,P20,Human Service Organizations - Multipurpose,256 BARTLETT ST,LEWISTON,ME,04240-6501,https://meirs.org/
834566382,Marys Place Refugee Outreach Inc.,A70,Humanities Organizations,38 ALAMEDA ST,ROCHESTER,NY,14613-1419,http://www.marysplaceoutreach.org/
223115048,Massachusetts Immigrant and Refugee Advocacy Coalition,R21,,105 Chauncy Street,Boston,MA,2111,https://miracoalition.org/
930878944,Medical Teams International,Q30,"International Development, Relief Services",14150 Southwest Milton Court,Tigard,OR,97224,https://www.medicalteams.org/
830894018,Merciful Refugee and Immigrant Services,P84,"Ethnic, Immigrant Centers, Services",4560 E BROADWAY BLVD STE 217,TUCSON,AZ,85711-3558,https://merciful-refugee-and-immigrant-services.business.site/
461632162,Mercy Refugees House Inc.,P84,"Ethnic, Immigrant Centers, Services",13455 94TH PL NE,KIRKLAND,WA,98034-1855,https://mercyrefugeeshouse.org/
455297608,Mercy Without Limits,Q33,International Relief,"11661 College Boulevard, Suite 105",Overland Park,KS,66210,https://mwlimits.org/
382991927,Michigan Coalition for Immigrant and Refugee Rights,R21,,PO BOX 524,OSHTEMO,MI,49077-0524,http://www.mcirr.org/
843853152,Michigan Refugee Hope Project,P12,Fund Raising and/or Fund Distribution,4515 DOBIE RD,OKEMOS,MI,48864-2203,
822708301,Middle East Refugee Association,P84,"Ethnic, Immigrant Centers, Services",291 E LEXINGTON AVE,EL CAJON,CA,92020-4536,
264325931,Middle Eastern Immigrant and Refugee Alliance,Q30,"International Development, Relief Services",6420 N CALIFORNIA AVE UPPR 1,CHICAGO,IL,60645-5256,https://www.mirachicago.org/
473624702,Midwest Alliance for North Korean Refugees,R20,"Civil Rights, Advocacy for Specific Groups",2353 RICE ST STE 106,ROSEVILLE,MN,55113-3721,https://www.refugeesnorthkorea.org/
522279789,Migration Policy Institute,R05,Research Institutes and/or Public Policy Analysis,"1400 16th Street, NW",Washington,DC,20036,https://www.migrationpolicy.org/
650304098,MINISTRY WITH REFUGEE WOMEN AND CHILDREN INC,,,PO BOX 144880,CORAL GABLES,FL,33114-4880,
262884436,Missouri Immigrant & Refugee Advocates Inc.,R20,"Civil Rights, Advocacy for Specific Groups",2725 CLIFTON AVE,SAINT LOUIS,MO,63139-2712,https://www.mira-mo.org/
832814646,Moghamo Refugee Relief Fund - M R R F,Q71,"International Migration, Refugee Issues",619 GLENRIDGE CT SE,CONYERS,GA,30094-4418,
161158764,Mohawk Valley Resource Center for Refugees,P84,"Ethnic, Immigrant Centers, Services",201 BLEECKER ST,UTICA,NY,13501-2203,https://www.thecenterutica.org/
263636863,Multicultural Refugee Coalition,P84,"Ethnic, Immigrant Centers, Services",PO BOX 41566,AUSTIN,TX,78704-0027,https://www.mrcaustin.org/
474140533,My Vision for Refugees Inc.,Q71,"International Migration, Refugee Issues",2625 PIEDMONT ROAD NE,ATLANTA,GA,30324-3086,https://www.myvision4refugees.org/
131776711,National Immigration Forum,,,"50 F Street, NW",Washington,DC,20001,https://immigrationforum.org/
943065434,National Network for Immigrant & Refugee Rights,R05,Research Institutes and/or Public Policy Analysis,310 8TH STREET SUITE 310,SAN FRANCISCO,CA,94103-0000,http://www.nnirr.org/drupal/
390806269,Neighborhood House of Milwaukee,P20,Human Service Organizations - Multipurpose,2819 West Richardson Place,Milwaukee,WI,53208,https://neighborhoodhousemke.org/
410693916,"Neighborhood House, St. Paul",S22,"Neighborhood, Block Associations","179 Robie Street, E.",St. Paul,MN,55107,http://neighb.org/
821778726,Neighbors for Refugees Inc.,R20,"Civil Rights, Advocacy for Specific Groups",PO BOX 416,LARCHMONT,NY,10538-0416,https://www.neighborsforrefugees.org/
461670774,Network Refuge Center,P84,"Ethnic, Immigrant Centers, Services",100 E EUCLID AVENUE STE C,DES MOINES,IA,50313-4511,
300130066,New American Pathways,P84,"Ethnic, Immigrant Centers, Services",2300 Henderson Mill Road NE,Atlanta,GA,30345,http://newamericanpathways.org/
842679896,New Beginnings Career Network for Refugees & Immigrants,,,1274 ALCATRAZ AVE APT B,BERKELEY,CA,94702-2634,
464129722,New Empowerment for Refugees Inc.,P20,Human Service Organizations - Multipurpose,5830 W GREENBRIAR DR,GLENDALE,AZ,85308-3848,http://empoweringrefugees.com/
821794884,New York for Syrian Refugees Inc.,P80,Services to Promote the Independence of Specific Populations,20 CAYUGA CT,SLINGERLANDS,NY,12159-9400,https://www.ny4syrians.org/
133573409,New York Immigration Coalition,,,131 West 33rd Street,New York,NY,10001,https://www.nyic.org/
813040379,No Place Like Home for Refugees Inc.,Q33,International Relief,3959 BENNIGAN LN,DULUTH,GA,30097-8143,https://noplacelikehome.org/
800942331,Noahs Ark for Refugees Inc.,Q71,"International Migration, Refugee Issues",12263 ARUCAUNA WAY,SAN DIEGO,CA,92129-4565,
261565119,North Korean Refugee Services Mission,P84,"Ethnic, Immigrant Centers, Services",1611 128TH ST SW APT 303,EVERETT,WA,98204-7565,
461087014,North Korean Refugees in the United States,P84,"Ethnic, Immigrant Centers, Services",2020 PENNSYLVANIA AVE NW STE 168,WASHINGTON,DC,20006-1811,
475342860,Norwegian Refugee Council USA,Q33,International Relief,818 CONNECTICUT AVE NW STE 650,WASHINGTON,DC,20006-2762,https://www.nrc.no/usa
822082078,Once We Were Refugees,J22,Vocational Training,4120 SW DUCK POND DR,LEES SUMMIT,MO,64082-5017,https://www.oncewewererefugees.org/
810920338,One Refugee Child Inc.,Q33,International Relief,8 CLIFF RD,GREENWICH,CT,06830-6706,http://www.onerefugeechild.org/
811543266,Operation Refugee Child,Q71,"International Migration, Refugee Issues",28461 LA PRADERA,LAGUNA NIGUEL,CA,92677-4427,https://www.indiegogo.com/projects/operation-refugee-child--15
263748676,Oram - Organization for Refuge Asylum & Migration,Q30,"International Development, Relief Services",615 1ST AVENUENE STE 500,MINNEAPOLIS,MN,55413-0000,https://oramrefugee.org/
760826598,Organization for Refugee and Immigrant Success,P84,"Ethnic, Immigrant Centers, Services",434 LAKE AVE,MANCHESTER,NH,03103-4271,https://www.refugeesuccess.org/
814269680,Partners in Engaging and Empowering Refugees,,,5017 MILEY RD,PLANT CITY,FL,33565-3805,https://www.facebook.com/peertampa/
753239990,Partnership for the Advancement & Immersion of Refugees,,,3300 CHIMNEY ROCK RD STE 105,HOUSTON,TX,77056-6617,https://www.pairhouston.org/
814387843,Pcs for Refugees,W02,Management & Technical Assistance,1711 W UNIVERSITY DR,TEMPE,AZ,85281-3251,https://pcsforrefugees.com/
820715036,Pennsylvania Center for Refugees & Immigrants,W01,Alliance/Advocacy Organizations,3705 TRINDLE RD STE 111,CAMP HILL,PA,17011-4334,https://pacri.org/
30429146,Pennsylvania Immigrant and Refugee Womens Network,P84,"Ethnic, Immigrant Centers, Services",8 E LOCUST ST,ENOLA,PA,17025-3024,http://www.pairwn.org/
824092669,Pets for Refugees Inc.,D60,Other Services - Specialty Animals,22 BARONS RD,ROCHESTER,NY,14617-2114,https://www.petsforrefugees.org/
815389122,Pittsburgh Refugee Advocacy Organization,B01,Alliance/Advocacy Organizations,603 BITTERSWEET CT,CRANBERRY TWP,PA,16066-7713,
223003501,Political Asylum Immigration Representation Project Inc.,I80,Legal Services,98 N WASHINGTON ST STE 106,BOSTON,MA,02114-1913,https://www.pairproject.org/
821924164,Portland Refugee Support Group,P20,Human Service Organizations - Multipurpose,10175 SW BARBUR BLVD STE 102B,PORTLAND,OR,97219-5953,https://www.pdxrsg.org/
262450109,Preemptive Love Coalition,E60,Health Support Services,1300 Darbyton Drive,Hewitt,TX,76643,https://preemptivelove.org/
232958415,Prime-Ecumenical Commitment to Refugees,Q71,"International Migration, Refugee Issues",129 OWEN AVE,LANSDOWNE,PA,19050-1539,https://www.palawhelp.org/organization/prime-ecr-ecumenical-commitment-to-refugees?ref=JDCCO
742436920,RAICES,R21,,1305 N. Flores St.,San Antonio,TX,78212,https://actionnetwork.org/groups/raices-refugee-and-immigrant-center-for-education-and-legal-services
113631988,Refugee & Immigrant Fund Incorporated,P58,Gift Distribution,3213 37TH ST,ASTORIA,NY,11103-4003,
202873332,Refugee & Immigrant Self-Empowerment Inc.,Q71,"International Migration, Refugee Issues",302 BURT ST,SYRACUSE,NY,13202-3911,http://www.syracuserise.org/
811735941,Refugee & Immigrant Services and Empowerment,I80,Legal Services,2939 NW 53RD DR,PORTLAND,OR,97210-1067,
911167743,Refugee & Immigrant Services Northwest,,,2000 TOWER ST,EVERETT,WA,98201-1352,https://www.risnw.org/
832575039,Refugee Action for Family Health,P20,Human Service Organizations - Multipurpose,1450 S WEST TEMPLE APT H108,S SALT LAKE,UT,84115-5478,https://www.facebook.com/refugeeactionfamilyhealth/?ref=py_c
823487411,Refugee Aid Alliance Inc.,P99,Human Services - Multipurpose and Other N.E.C.,610 N KAYS DR,KAYSVILLE,UT,84037-4222,
204008643,Refugee Aid Ministries,Q33,International Relief,4 SAND PIPER PL,THE WOODLANDS,TX,77381-3117,
264724813,Refugee Alliance Network,A23,"Cultural, Ethnic Awareness",2822 GEORGIA AVE NW,WASHINGTON,DC,20001-4951,https://www.facebook.com/ARAGRCI/
43430294,Refugee and Immigrant Assistance Center Inc.,P84,"Ethnic, Immigrant Centers, Services",31 HEATH ST,JAMAICA PLAIN,MA,02130-1650,http://www.riacboston.org/
810920164,Refugee and Immigrant Association,P20,Human Service Organizations - Multipurpose,1566 S GILBERT ST,IOWA CITY,IA,52240-4304,http://refugeeimmigrant.org/
464034391,Refugee and Immigrant Services,Q71,"International Migration, Refugee Issues",537 LISBON ST,SAN FRANCISCO,CA,94112-3562,
821779829,Refugee and Immigrant Services & Education,P84,"Ethnic, Immigrant Centers, Services",PO BOX 866,NOEL,MO,64854-0866,
274809744,Refugee and Immigrant Support Services of Emmaus Inc.,P84,"Ethnic, Immigrant Centers, Services",715 MORRIS ST,ALBANY,NY,12208-2208,http://www.risse-albany.org/home/
821837961,Refugee and Migrant Women S Initiative,P20,Human Service Organizations - Multipurpose,2792,RIVERVIEW,FL,33568-0000,https://www.ramwi.org/
43259150,Refugee Apostolate Inc.,P20,Human Service Organizations - Multipurpose,242 CANTERBURY ST,WORCESTER,MA,01603-2839,
823429406,Refugee Assistance Alliance Inc.,P84,"Ethnic, Immigrant Centers, Services",1825 PONCE DE LEON BLVD NO 145,CORAL GABLES,FL,33134-4418,https://www.refugeeassistancealliance.org/
810712874,Refugee Assistance and Information Network International,Q71,"International Migration, Refugee Issues",10260 SW GREENBURG RD 4TH FLOOR,PORTLAND,OR,97223-5500,https://raininternational.org/
821634333,Refugee Assistance Partners Nj Nonprofit Corporation,R01,Alliance/Advocacy Organizations,559 PARK AVE,SCOTCH PLAINS,NJ,07076-1705,https://www.refugeeassistancepartnersnj.org/
823235377,Refugee Care Collective,P80,Services to Promote the Independence of Specific Populations,10160 SW NIMBUS AVE STE F3,PORTLAND,OR,97223-4338,https://refugeecarecollective.org/
822515143,Refugee Choir Project,A6B,"Singing, Choral",1753 S 41ST ST,TACOMA,WA,98418-1635,https://www.refugeechoir.org/
475274594,Refugee Communities Center,P80,Services to Promote the Independence of Specific Populations,4200 MERIDIAN ST STE 212,BELLINGHAM,WA,98226-5592,
263608741,Refugee Community Partnership Inc.,R99,"Civil Rights, Social Action, Advocacy N.E.C.",PO BOX 461,CARRBORO,NC,27510-0461,https://refugeecommunitypartnership.org/
815036387,Refugee Communiy Development Foundation,A25,Arts Education,5234 MELROSE AVE APT 209,LOS ANGELES,CA,90038-4360,
900652201,Refugee Connections Spokane,P84,"Ethnic, Immigrant Centers, Services",35 W MAIN AVE STE 205,SPOKANE,WA,99201-5119,http://www.refugeeconnectionsspokane.org/
263936253,Refugee Development Center,P84,"Ethnic, Immigrant Centers, Services",600 W MAPLE ST STE A,LANSING,MI,48906-5094,https://refugeedevelopmentcenter.org/
473515841,Refugee Development Center Inc.,P84,"Ethnic, Immigrant Centers, Services",28 ERIE ST,PROVIDENCE,RI,02908-1220,
843375319,Refugee Donation Cup Inc.,P20,Human Service Organizations - Multipurpose,725 JACKSON ST STE 200,FREDERICKSBRG,VA,22401-5761,https://www.facebook.com/refugeedonationcupinc/
812174635,Refugee Education and Adventure Challenge,P20,Human Service Organizations - Multipurpose,743 N TAYLOR AVE,OAK PARK,IL,60302-1749,https://www.reachinchicago.org/
813103989,Refugee Empowerment and Support Taskforce,Q71,"International Migration, Refugee Issues",1613 N GARFIELD ST,ARLINGTON,VA,22201-3923,https://www.the-rest.org/
911778118,Refugee Empowerment Center,P50,Personal Social Services,3610 DODGE ST STE 100,OMAHA,NE,68131-3218,https://refugeeempowerment.org/
830606365,Refugee Empowerment Network,X21,Protestant,5008 HILDRING DR E APT 175,FORT WORTH,TX,76132-1703,
462324706,Refugee Empowerment Program,P20,Human Service Organizations - Multipurpose,2400 POPLAR AVE STE 318,MEMPHIS,TN,38112-3211,https://repmemphis.org/
474167979,Refugee Equality Education & Awareness,R26,"Lesbian, Gay Rights",3316 LODGEPOLE CIR,COLLEGE STA,TX,77845-5902,
822087108,Refugee Events Inc.,X20,Christian,9101 AYRDALE CRESCENT 45A,PHILADELPHIA,PA,19128-1050,
861078957,Refugee Family Assistance Program,P84,"Ethnic, Immigrant Centers, Services",5405 MEMORIAL DR STE 101,STONE MOUNTAIN,GA,30083-3234,https://refugeefap.org/
911185965,Refugee Federation Service Center,P84,"Ethnic, Immigrant Centers, Services",1209 CENTRAL AVE S STE 134,KENT,WA,98032-7439,https://rfsc.org/
271136562,Refugee Forum of Orange County,P84,"Ethnic, Immigrant Centers, Services",631 S BROOKHURST ST STE 107,ANAHEIM,CA,92804-3576,
813986864,Refugee Helping Center II,P20,Human Service Organizations - Multipurpose,9587 BOLSA AVENUE,GARDEN GROVE,CA,92840-0000,
814532787,Refugee Home Project Inc.,Q33,International Relief,134 E 40TH ST,NEW YORK,NY,10016-1706,
824815219,Refugee Hope Partners Inc.,P50,Personal Social Services,7474 CREEDMOOR ROAD BOX 313,RALEIGH,NC,27613-1663,https://www.refugeehopepartners.org/
830991059,Refugee Inspirational Support Effort,T23,Private Operating Foundations,5775 BUSH HILL DR,ALEXANDRIA,VA,22310-1154,
820714547,Refugee Justice League Inc.,T31,Community Foundations,5664 S GREEN ST,SALT LAKE CTY,UT,84123-5796,https://www.refugeejustice.org/
831205519,Refugee Language Project,P84,"Ethnic, Immigrant Centers, Services",3701 S SONCY RD,AMARILLO,TX,79119-6492,https://refugeelanguage.org/
43279002,Refugee Law Center Inc.,I83,"Public Interest Law, Litigation",705 CENTRE STREET STE 200,JAMAICA PLAIN,MA,02130-2598,
391369509,Refugee Ministries Inc.,Q33,International Relief,PO BOX 4741,EL PASO,TX,79914-4741,https://refugeministries.org/
842139513,Refugee Ministries International,T50,"Philanthropy, Charity, Voluntarism Promotion, General",107 ABBEY TER,DREXEL HILL,PA,19026-2041,https://www.facebook.com/pages/category/Nonprofit-Organization/Refugee-Ministries-International-655976571136946/
454214760,Refugee Opportunities Foundation,T30,Public Foundations,PO BOX 1774,DAVIDSON,NC,28036-1774,
822319384,Refugee Orchestra Project,A68,Music,73 COLUMBUS AVE NO 1,SOMERVILLE,MA,02143-2019,http://www.refugeeorchestraproject.org/
815206763,Refugee Outreach International,,,15 CANOE BROOK RD,SHORT HILLS,NJ,07078-1117,http://refugeeoutreachinternational.org/
814140785,Refugee Outreach Kalamazoo,S80,Community Service Clubs,315 W MICHIGAN AVE,KALAMAZOO,MI,49007-3736,https://rocyourworld.org/
593575921,REFUGEE OUTREACH OF CONGREGATIONS IN COMMUNITY,,,4129 OXFORD AVE,JACKSONVILLE,FL,32210-4425,
832979610,Refugee Photo Project,P84,"Ethnic, Immigrant Centers, Services",2995 55TH ST UNIT 20822,BOULDER,CO,80308-5354,
473546160,Refugee Project Inc.,P84,"Ethnic, Immigrant Centers, Services",611 ROSEWOOD DR,SHENANDOAH,TX,77381-1034,
475417614,Refugee Protection International Inc.,Q33,International Relief,5 Bow Rd,Belmont,MA,2478,https://refugeeprotection.org/
830981671,Refugee Relief,Q33,International Relief,2319 S CALVIN RD,SPOKANE VLY,WA,99037-9430,
651205874,Refugee Relief International Incorporation,P60,"Emergency Assistance (Food, Clothing, Cash)",630 BAYVIEW DR,KERENS,TX,75144-6199,
541626385,REFUGEE RESETTLEMENT & IMMIGRATION SERVCS OF CATHOLIC DIO OF RICH INC,,,1512 WILLOW LAWN DRIVE,RICHMOND,VA,23230-3117,
475674203,Refugee Resettlement Fund,R12,Fund Raising and/or Fund Distribution,7147 DESERT JEWEL DR,EL PASO,TX,79912-7686,
472094090,Refugee Resource Center,Q71,"International Migration, Refugee Issues",604 LOCUST ST APT 1202,DES MOINES,IA,50309-3410,https://www.facebook.com/RRCIowa/
203425213,Refugee Resource Inc.,P84,"Ethnic, Immigrant Centers, Services",6640 ABRAMS RD 821051,DALLAS,TX,75231-7210,https://www.refugeeresources.org/
842409085,Refugee Rights Coalition,Q12,Fund Raising and/or Fund Distribution,8418 LARGE ST,PHILADELPHIA,PA,19152-1905,
832819006,Refugee Rising,,,900 MONROE AVE NW,GRAND RAPIDS,MI,49503-1423,https://www.refugeerising.org/
751618251,Refugee Services of North Texas,R21,,9241 LBJ FREEWAY,DALLAS,TX,75243-3478,https://www.rstx.org/
460639838,Refugee Solidarity Network Inc.,Q05,Research Institutes and/or Public Policy Analysis,109 S 5TH ST,BROOKLYN,NY,11249-5501,https://refugeesolidaritynetwork.org/
463944698,Refugee Support Center,P20,Human Service Organizations - Multipurpose,PO BOX 1025,CARRBORO,NC,27510-1025,https://refugeesupportcenter.org/
205972063,Refugee Support Services of the Carolinas Inc.,P99,Human Services - Multipurpose and Other N.E.C.,3601 CENTRAL AVE,CHARLOTTE,NC,28205-5637,https://www.refugeesupportservices.org/
300891399,Refugee Support Services of Utah,P84,"Ethnic, Immigrant Centers, Services",4122 SOUTH 1785 WEST,SALT LAKE CITY,UT,84123-0000,
271818354,Refugee Talent and Education International Inc.,Q30,"International Development, Relief Services",5314 REMINGTON DR,GARLAND,TX,75044-5589,https://www.facebook.com/Oduhogeorge/about/
943112099,Refugee Transitions,O40,Scouting Organizations,870 MARKET ST STE 718,SAN FRANCISCO,CA,94102-2902,https://www.reftrans.org/
474474357,Refugee Utility Project,Q33,International Relief,659 IDLEWOOD PL,EL DORADO HLS,CA,95762-9588,http://www.refugeeutilityproject.com/
823371814,Refugee Village Corp,B99,Education N.E.C.,712 ABERDEEN DR,STONE MTN,GA,30083-4308,https://refugeevillage.org/
812218374,Refugee Volunteer Organization,W99,"Public, Society Benefit - Multipurpose and Other N.E.C.",1220 SW MORRISON ST STE 920,PORTLAND,OR,97205-2228,https://www.refvolpdx.org/
812233661,Refugee Welcome Corporation,L01,Alliance/Advocacy Organizations,488 ELK ST,ALBANY,NY,12206-2401,https://www.rwcwesthill.com/
264375066,Refugee Women in Action,P84,"Ethnic, Immigrant Centers, Services",1391 W 5TH AVE RM/STE 139,COLUMBUS,OH,43212-2902,http://rwia.org/
465416864,Refugee Women Organization of Nebraska,A70,Humanities Organizations,2821 MONROE ST,OMAHA,NE,68107-4147,https://www.facebook.com/refugeewomenorganizationofnebraska/
911296964,Refugee Womens Alliance,P84,"Ethnic, Immigrant Centers, Services",4008 MLK JR WAY,SEATTLE,WA,98108-1623,https://www.rewa.org/
582369796,Refugee Womens Network Inc.,P84,"Ethnic, Immigrant Centers, Services",2900 CHAMBLEE TUCKER RD BLDG 3,ATLANTA,GA,30341-4100,http://refugeewomensnetworkinc.org/
273422068,Refugee-Immigrant Young-Adult Neighbor,P20,Human Service Organizations - Multipurpose,2564 ROCKHILL DR NE,GRAND RAPIDS,MI,49525-1241,https://www.facebook.com/ryanmentor/?comment_id=Y29tbWVudDo4ODY1MTE2MTEzODg3NzhfODg2NTExNjk4MDU1NDM2
43200436,Refugee-Immigration Ministry,Z99,Unknown,6 PLEASANT ST STE 612,MALDEN,MA,02148-5167,http://www.r-i-m.net/
823242931,Refugees and Immigrants Community for Empowerment,P84,"Ethnic, Immigrant Centers, Services",3581 W NORTHERN AVE STE 8,PHOENIX,AZ,85051-9404,http://www.ricecommunityservices.org/
822023971,Refugees Enrichment & Development Association Inc.,P84,"Ethnic, Immigrant Centers, Services",2919 FULTON AVE,SACRAMENTO,CA,95821-4909,https://redacenter.org/refugee/index.php/home/
470848029,Refugees Helping Refugees Inc.,P20,Human Service Organizations - Multipurpose,835 SOUTH AVE,ROCHESTER,NY,14620-2315,https://rhrroc.org/
521224516,Refugees International,Q71,"International Migration, Refugee Issues","1800 M Street, NW",Washington,DC,20036,https://www.google.com/aclk?sa=l&ai=DChcSEwj2mKu0vNTqAhUCnLMKHUt4AIQYABAAGgJxbg&sig=AOD64_2lI8D2Dnqbjoln3r9PD71SAnjMEQ&q=&ved=2ahUKEwjF26K0vNTqAhXyg3IEHf1eAFYQ0Qx6BAgfEAE&adurl=
270692669,Refugees Read Incorporated,Q30,"International Development, Relief Services",1480 E HANSELMAN RD,ANGOLA,IN,46703-8990,
203449871,Refugees Services and Individuals Assistance Corporation,A62,Dance,3 SHABAZZ WA,ROXBURY,MA,02119-0000,https://www.facebook.com/pages/category/Nonprofit-Organization/Refugees-Services-And-Individuals-Assistance-Corporation-2013907355532982/
842585675,Refugees Stories,W12,Fund Raising and/or Fund Distribution,8818 GOODBYS EXECUTIVE DR,JACKSONVILLE,FL,32217-4696,
474839577,Refugees Thrive International,Q33,International Relief,2511 W CULLOM AVE APT 2,CHICAGO,IL,60618-1501,http://www.refugeesthrive.org/
815056885,Refugees to Camp Inc.,T50,"Philanthropy, Charity, Voluntarism Promotion, General",126 WELLINGTON AVE,ALBANY,NY,12203-2638,
263174684,Refugees United Foundation USA,Q33,International Relief,155 MONTGOMERY ST FL12,SAN FRANCISCO,CA,94104-4105,https://refunite.org/contact/
814651313,Refugees Welcome,S02,Management & Technical Assistance,100 WILLIAM T MORRISSEY BLVD,BOSTON,MA,02125-3300,https://refugeeswelcomehome.org/
260239864,Refushe Inc.,Q33,International Relief,1111 N WELLS ST STE 307,CHICAGO,IL,60610-7595,https://www.refushe.org/
474237059,Rohingya Refugee Education Fund,Q30,"International Development, Relief Services",408 FIELDSTON RD,BELLINGHAM,WA,98225-7824,http://rohingyafund.org/
834437163,Ruths Refuge Inc.,P20,Human Service Organizations - Multipurpose,130 FENIMORE ST APT 3I,BROOKLYN,NY,11225-5300,https://www.ruthsrefuge.org/about
465426528,Safari Homes & Refugee Services Inc.,S20,"Community, Neighborhood Development, Improvement (General)",4854 S 20TH ST,MILWAUKEE,WI,53221-2811,
821998118,San Diego Refugee Tutoring,P20,Human Service Organizations - Multipurpose,4903 DAFTER PL,SAN DIEGO,CA,92102-1309,https://sdrefugeetutoring.com/
814438145,San Fernando Valley Refugee Children Center Inc.,P50,Personal Social Services,15435 RAYEN ST,NORTH HILLS,CA,91343-5119,https://www.noestassolonorthhills.org/
274057046,Schools for Refugees,Q33,International Relief,45 EASTERN PROMENADE APT 9H,PORTLAND,ME,04101-4823,https://schoolsforrefugees.org/
800284986,Schools for Shan Refugees Inc.,B99,Education N.E.C.,2928 DEAN PKWY APT 3A,MINNEAPOLIS,MN,55416-4426,http://shanrefugeeschools.org/
821941353,Seeking Asylum & Finding Empowerment Inc.,I80,Legal Services,3556 79TH ST APT 53,JACKSON HTS,NY,11372-4840,https://www.safeasylum.org/
200638718,"Sewa International, Inc",P20,Human Service Organizations - Multipurpose,100 W Oaks Mall,Houston,TX,77082,https://sewausa.org/
473727356,Society of Iranian Refugees,Q71,"International Migration, Refugee Issues",1108 ODYSSEY CT,SAN JOSE,CA,95118-2772,https://www.facebook.com/fordelaram/
472210459,Society of North American Refugee Healthcare Providers,B03,"Professional Societies, Associations",172 COLBY ST,SPENCERPORT,NY,14559-9711,http://refugeesociety.org/
463794186,Somali-Bantu Refugees Community Association Inc.,P20,Human Service Organizations - Multipurpose,127 BAKER AVENUE APT 2,SYRACUSE,NY,13205-1101,https://cnycf.org/sslpage.aspx?pid=703
411729008,Southeast Asian Refugee Community Home-Search,J20,"Employment Procurement Assistance, Job Training",1113 E FRANKLIN AVE STE 212,MINNEAPOLIS,MN,55404-2966,https://www.facebook.com/SEARCH.MN.org/
473832575,Southwest Detroit Immigrant and Refugee Center,I80,Legal Services,174 RIDGE RD,GROSSE PT FRM,MI,48236-3516,https://detimmigrantcenter.com/
462431007,Soutwest Asylum and Migration Institute,P84,"Ethnic, Immigrant Centers, Services",PO BOX 15160,LAS CRUCES,NM,88004-5160,
831211260,Start St. Louis Teens Aid Refugees Today Inc.,T20,Private Grantmaking Foundations,1049 RIDGEWAY MEADOW DR,ELLISVILLE,MO,63021-6088,https://www.facebook.com/STARTSTL/
822055439,Starting Point for Refugee Children,P30,"Children's, Youth Services",2525 ROCK DOVE WAY,ELK GROVE,CA,95757-8153,https://www.startingpointworld.com/
823474506,Students for Refugee Medical Relief,T50,"Philanthropy, Charity, Voluntarism Promotion, General",2508 SW 35TH PL APT 3,GAINESVILLE,FL,32608-3250,https://www.grmruf.org/
202350342,Sudanese Refugee Childrens Foundation Inc.,T12,Fund Raising and/or Fund Distribution,4833 WALKER AVE APT 7,LINCOLN,NE,68504-2823,https://www.facebook.com/SouthSudaneseChildrensFoundation/
825213153,Syrian Refugee Mission of New England Inc.,Q33,International Relief,158 HESPERUS AVE,GLOUCESTER,MA,01930-5206,"https://www.facebook.com/SyrianRefugeeMissionofNewEngland/#:~:text=WCS-,The%20Syrian%20Refugee%20Mission%20of%20New%20England%20of%20St.,bringing%20humanitarian%20and%20medical..."
811159467,Syrian United Refugee Fund Inc.,P60,"Emergency Assistance (Food, Clothing, Cash)",4653 DAVENPORT AVE,OAKLAND,CA,94619-2916,https://syrianunitedrefugeefund.org/
822591748,Teach North Korean Refugees Global Education Center,P20,Human Service Organizations - Multipurpose,1405 S FERN ST 90427,ARLINGTON,VA,22202-2810,https://lovetnkr.org/
200121100,Tennessee Immigrant and Refugee Rights Coalition,R20,"Civil Rights, Advocacy for Specific Groups",2195 NOLENSVILLE PIKE,NASHVILLE,TN,37211-2094,https://www.tnimmigrant.org/
752905162,Texas Refugee and Immigrant Womens Association Inc.,B60,"Adult, Continuing Education",1116 SWITCHGRASS LN,CROWLEY,TX,76036-4319,http://resourcesforthenearse.tripod.com/triwaDallasFortWorth/TexasRefugeeImmigrantWomensAssn.html
131623910,The Blue Card,P60,"Emergency Assistance (Food, Clothing, Cash)",171 Madison Avenue,New York,NY,10016,https://www.bluecardfund.org/
421752533,The Center for Immigrant and Refugee Community Services Inc.,P84,"Ethnic, Immigrant Centers, Services",PO BOX 1124,SNELLVILLE,GA,30078-1124,
363383933,The Center for Victims of Torture,Q70,International Human Rights,2356 University Ave W Ste 430,Saint Paul,MN,55114,https://www.cvt.org/
208999776,The Episcopal Refugee Network of San Diego,P20,Human Service Organizations - Multipurpose,4265 FAIRMOUNT AVE STE 130,SAN DIEGO,CA,92105-6401,https://refugee-net.org/
741943398,The Purple Door,,,P.O. Box 3368,Corpus Christi,TX,78463,
61770896,The Refugee Education Center,R22,Minority Rights,2130 ENTERPRISE ST SE,GRAND RAPIDS,MI,49508-5352,https://refugeeeducationcenter.org/about
300594051,The Refugee Response,P84,"Ethnic, Immigrant Centers, Services",4115 BRIDGE AVE,CLEVELAND,OH,44113-3304,https://www.refugeeresponse.org/
453069802,Thrive A Refugee Support Program,,,3334 BRETON RD SE,KENTWOOD,MI,49512-2710,https://refugeesupportgr.org/
800773692,Tibetan Refugee Fund,Q30,"International Development, Relief Services",7856 SATURN PL,PHILADELPHIA,PA,19153-1212,
473634477,Triangle Refugee Support Center Inc.,P60,"Emergency Assistance (Food, Clothing, Cash)",3109 MOUNT ROGERS CIR,CARY,NC,27519-9607,
260212489,Unitarian Universalist Refugee and Immigrant Services and Education In,I80,Legal Services,1600 BUENA VISTA DR,VISTA,CA,92081-7423,http://uurise.org/
363711070,United Network for Immigrants and Refugees Rights,P84,"Ethnic, Immigrant Centers, Services",1744 W 18TH ST,CHICAGO,IL,60608-2093,
112494808,United Palestinian Appeal,Q33,International Relief,"1330 New Hampshire Avenue, NW",Washington,DC,20036,https://upaconnect.org/
842020228,United Vietnamese Refugee Association,P20,Human Service Organizations - Multipurpose,1347 W ROBERTA AVE,FULLERTON,CA,92833-4614,
954294690,Universal Congress for Unsettled Refugees Incorporated,Z99,Unknown,924 HUNTINGTON DR,SAN MARINO,CA,91108-1825,
202714426,UNRWA USA National Committee,Q33,International Relief,1875 Connecticut Avenue NW,Washington,DC,20009,https://www.unrwa.org/our-partners/national-committees
824244279,Urban Refugees USA,Q11,Single Organization Support,49 RIVERVIEW TER,U SADDLE RIV,NJ,07458-2006,
371643424,Urgent Relief for Eritrean Refugees,Q33,International Relief,14028 LAWRENCE FARM LN,CHARLOTTE,NC,28278-7367,
131878704,US Committee for Refugees and Immigrants Inc.,,,2231 CRYSTAL DR STE 350,ARLINGTON,VA,22202-3794,https://refugees.org/
521662800,USA for UNHCR,Q42,United Nations Association,"1310 L Street, NW",Washington,DC,20005,htttps://www.unrefugees.org
461170697,USA Refugees & Immigrants Corp,P84,"Ethnic, Immigrant Centers, Services",8181 NW 36TH ST STE 1002,DORAL,FL,33166-6642,https://www.facebook.com/USARefugees/
263952217,Utah Refugee Coalition,P84,"Ethnic, Immigrant Centers, Services",6440 S WASATCH BLVD,SALT LAKE CTY,UT,84121-3511,https://serverefugees.org/
812784880,Utah Valley Refugees,T30,Public Foundations,125 E 300 S STE 205,PROVO,UT,84606-4633,https://utahvalleyrefugees.org/
264475822,Voice of Refugees,P20,Human Service Organizations - Multipurpose,622 N GILBERT ST,ANAHEIM,CA,92801-3747,https://vorservices.org/
831874617,Voices of Refugees Inc.,Q71,"International Migration, Refugee Issues",1095 LYNN PL,WOODMERE,NY,11598-1323,
825046662,Washtenaw Refugee Welcome,P20,Human Service Organizations - Multipurpose,1501 W LIBERTY ST,ANN ARBOR,MI,48103-4141,https://www.washtenawrefugeewelcome.org/
452583862,Welcoming of Refugees for Lansing Development World Coalition,P84,"Ethnic, Immigrant Centers, Services",117 W BARNES AVE,LANSING,MI,48910-1410,https://www.facebook.com/The-World-Coalition-Welcoming-Of-Refugees-for-Lansing-Development-200576016647786/
822379362,West Virginia Interfaith Refugee Ministry,Q71,"International Migration, Refugee Issues",PO BOX 5387,CHARLESTON,WV,25361-0387,https://wvirm.com/
610994341,Western Kentucky Refugee Mutual Assistance Society Inc.,P84,"Ethnic, Immigrant Centers, Services",806 KENTON ST,BOWLING GREEN,KY,42101-2310,https://www.icofky.com/
474084932,Women Refugee Care,P84,"Ethnic, Immigrant Centers, Services",570 BROAD STREET,PROVIDENCE,RI,02907-1479,https://www.womensrefugeecare.org/
823510069,Women United for Refugees and Immigrants of Illinois,P99,Human Services - Multipurpose and Other N.E.C.,12901 ALPINE WAY,PLAINFIELD,IL,60585-5018,http://wurii.org/
463668128,Womens Refugee Commission Inc.,P80,Services to Promote the Independence of Specific Populations,15 WEST 37TH STREET NO 9TH FL,NEW YORK,NY,10018-5381,https://www.womensrefugeecommission.org/
301101287,Worcester Alliance for Refugee Minstry Warm Inc.,P20,Human Service Organizations - Multipurpose,474 GROVE ST SUITE 710,WORCESTER,MA,01605-1214,https://www.warmwelcoming.org/
320309547,Worcester Refugee Assistance Project Inc.,P20,Human Service Organizations - Multipurpose,340 MAIN ST STE 205,WORCESTER,MA,01608-1623,http://www.worcesterrefugees.org/
452967640,Worcester Refugees Aid Organization Inc.,X20,Christian,11 SYCAMORE STREET SUITE 104,WORCESTER,MA,01608-2213,
814522910,World Friends Refugee Aid,P60,"Emergency Assistance (Food, Clothing, Cash)",PO BOX 101507,FORT WORTH,TX,76185-1507,
824418753,World Refugee Day in Western New York Inc.,S21,Community Coalitions,65 COURIER BLVD,KENMORE,NY,14217-0000,https://www.facebook.com/WorldRefugeeDayBuffalo/
813332493,World Refugee School,Q33,International Relief,3960 BIRDSVILLE RD,DAVIDSONVILLE,MD,21035-2505,
464164870,World Refugees Care,P20,Human Service Organizations - Multipurpose,6848 LONGHORN TRL,FRISCO,TX,75034-4035,https://worldrefugeecare.org/
821978601,World Refugees School Wrs Inc.,Q30,"International Development, Relief Services",2550 N 1ST STREET,SAN JOSE,CA,95131-1038,https://www.wrschool.org/